{
    "links": {
        "self": "http://www.neowsapp.com/rest/v1/neo/3555678?api_key=iIulBulltgU6a56xZRHN4H3l9WmuAYTsLGpBGhQ2"
    },
    "id": "3555678",
    "neo_reference_id": "3555678",
    "name": "(2011 BY11)",
    "designation": "2011 BY11",
    "nasa_jpl_url": "http://ssd.jpl.nasa.gov/sbdb.cgi?sstr=3555678",
    "absolute_magnitude_h": 25.5,
    "estimated_diameter": {
        "kilometers": {
            "estimated_diameter_min": 0.0211132445,
            "estimated_diameter_max": 0.0472106499
        },
        "meters": {
            "estimated_diameter_min": 21.113244479,
            "estimated_diameter_max": 47.2106498806
        },
        "miles": {
            "estimated_diameter_min": 0.0131191578,
            "estimated_diameter_max": 0.0293353287
        },
        "feet": {
            "estimated_diameter_min": 69.2691770164,
            "estimated_diameter_max": 154.8905885541
        }
    },
    "is_potentially_hazardous_asteroid": false,
    "close_approach_data": [
        {
            "close_approach_date": "2011-01-30",
            "close_approach_date_full": "2011-Jan-30 17:24",
            "epoch_date_close_approach": 1296408240000,
            "relative_velocity": {
                "kilometers_per_second": "12.3789547853",
                "kilometers_per_hour": "44564.2372269212",
                "miles_per_hour": "27690.4839591389"
            },
            "miss_distance": {
                "astronomical": "0.0361893017",
                "lunar": "14.0776383613",
                "kilometers": "5413842.451107379",
                "miles": "3364005.7081006702"
            },
            "orbiting_body": "Earth"
        },
        {
            "close_approach_date": "2011-07-03",
            "close_approach_date_full": "2011-Jul-03 06:18",
            "epoch_date_close_approach": 1309673880000,
            "relative_velocity": {
                "kilometers_per_second": "9.7255368636",
                "kilometers_per_hour": "35011.932708808",
                "miles_per_hour": "21755.0534100924"
            },
            "miss_distance": {
                "astronomical": "0.395735455",
                "lunar": "153.941091995",
                "kilometers": "59201181.15148085",
                "miles": "36785908.18230173"
            },
            "orbiting_body": "Earth"
        }
    ],
    "orbital_data": {
        "orbit_id": "8",
        "orbit_determination_date": "2017-04-06 08:54:51",
        "first_observation_date": "2011-01-26",
        "last_observation_date": "2011-01-29",
        "data_arc_in_days": 3,
        "observations_used": 16,
        "orbit_uncertainty": "8",
        "minimum_orbit_intersection": ".0361404",
        "jupiter_tisserand_invariant": "4.690",
        "epoch_osculation": "2455588.5",
        "eccentricity": ".3369140683965286",
        "semi_major_axis": "1.381779195020882",
        "inclination": "17.729159472529",
        "ascending_node_longitude": "126.4728662586374",
        "orbital_period": "593.2754821262272",
        "perihelion_distance": ".9162383448007161",
        "perihelion_argument": "55.96601814071248",
        "aphelion_distance": "1.847320045241047",
        "perihelion_time": "2455635.004361144939",
        "mean_anomaly": "331.7811193677206",
        "mean_motion": ".6068007373401034",
        "equinox": "J2000",
        "orbit_class": {
            "orbit_class_type": "APO",
            "orbit_class_description": "Near-Earth asteroid orbits which cross the Earth’s orbit similar to that of 1862 Apollo",
            "orbit_class_range": "a (semi-major axis) > 1.0 AU; q (perihelion) < 1.017 AU"
        }
    },
    "is_sentry_object": false
}